[{"OBJECT_NAME":"STARLINK-5576","OBJECT_ID":"2023-013BD","EPOCH":"2025-09-16T04:32:16.620000","MEAN_MOTION":15.02536231,"ECCENTRICITY":0.00011191,"INCLINATION":43.003,"RA_OF_ASC_NODE":181.1972,"ARG_OF_PERICENTER":262.9045,"MEAN_ANOMALY":97.167,"EPHEMERIS_TYPE":0,"CLASSIFICATION_TYPE":"U","NORAD_CAT_ID":55382,"ELEMENT_SET_NO":999,"REV_AT_EPOCH":14531,"BSTAR":4.5439184e-5,"MEAN_MOTION_DOT":4.1e-6,"MEAN_MOTION_DDOT":0},{"OBJECT_NAME":"STARLINK-5531","OBJECT_ID":"2023-013BE","EPOCH":"2025-09-16T09:24:59.559264","MEAN_MOTION":15.02541661,"ECCENTRICITY":0.00011996,"INCLINATION":43.0038,"RA_OF_ASC_NODE":154.1377,"ARG_OF_PERICENTER":265.9433,"MEAN_ANOMALY":94.1272,"EPHEMERIS_TYPE":0,"CLASSIFICATION_TYPE":"U","NORAD_CAT_ID":55383,"ELEMENT_SET_NO":999,"REV_AT_EPOCH":14564,"BSTAR":4.0562814e-5,"MEAN_MOTION_DOT":3.44e-6,"MEAN_MOTION_DDOT":0},{"OBJECT_NAME":"STARLINK-5537","OBJECT_ID":"2023-013BF","EPOCH":"2025-09-16T04:29:05.120448","MEAN_MOTION":15.02532664,"ECCENTRICITY":0.00010469,"INCLINATION":43.0024,"RA_OF_ASC_NODE":181.1813,"ARG_OF_PERICENTER":264.9738,"MEAN_ANOMALY":95.0985,"EPHEMERIS_TYPE":0,"CLASSIFICATION_TYPE":"U","NORAD_CAT_ID":55384,"ELEMENT_SET_NO":999,"REV_AT_EPOCH":14531,"BSTAR":2.5509044e-5,"MEAN_MOTION_DOT":1.41e-6,"MEAN_MOTION_DDOT":0},{"OBJECT_NAME":"STARLINK-5556","OBJECT_ID":"2023-013BG","EPOCH":"2025-09-16T12:06:56.372832","MEAN_MOTION":15.02538813,"ECCENTRICITY":0.0001036,"INCLINATION":43.0039,"RA_OF_ASC_NODE":179.2633,"ARG_OF_PERICENTER":258.8355,"MEAN_ANOMALY":101.2371,"EPHEMERIS_TYPE":0,"CLASSIFICATION_TYPE":"U","NORAD_CAT_ID":55385,"ELEMENT_SET_NO":999,"REV_AT_EPOCH":14536,"BSTAR":7.0915735e-5,"MEAN_MOTION_DOT":7.55e-6,"MEAN_MOTION_DDOT":0},{"OBJECT_NAME":"STARLINK-5555","OBJECT_ID":"2023-013BH","EPOCH":"2025-09-16T12:11:44.638656","MEAN_MOTION":15.02538497,"ECCENTRICITY":0.00012547,"INCLINATION":43.0021,"RA_OF_ASC_NODE":179.2888,"ARG_OF_PERICENTER":262.8544,"MEAN_ANOMALY":97.2156,"EPHEMERIS_TYPE":0,"CLASSIFICATION_TYPE":"U","NORAD_CAT_ID":55386,"ELEMENT_SET_NO":999,"REV_AT_EPOCH":14536,"BSTAR":0.0001940952,"MEAN_MOTION_DOT":2.419e-5,"MEAN_MOTION_DDOT":0},{"OBJECT_NAME":"STARLINK-5085","OBJECT_ID":"2023-014B","EPOCH":"2025-09-16T07:51:57.896352","MEAN_MOTION":14.98330865,"ECCENTRICITY":0.00028454,"INCLINATION":69.9992,"RA_OF_ASC_NODE":123.9791,"ARG_OF_PERICENTER":271.8974,"MEAN_ANOMALY":88.1859,"EPHEMERIS_TYPE":0,"CLASSIFICATION_TYPE":"U","NORAD_CAT_ID":55392,"ELEMENT_SET_NO":999,"REV_AT_EPOCH":14643,"BSTAR":-1.1497224e-5,"MEAN_MOTION_DOT":-2.3e-6,"MEAN_MOTION_DDOT":0},{"OBJECT_NAME":"STARLINK-4786","OBJECT_ID":"2023-014C","EPOCH":"2025-09-16T09:58:28.689312","MEAN_MOTION":14.9832854,"ECCENTRICITY":0.00028332,"INCLINATION":69.9996,"RA_OF_ASC_NODE":143.766,"ARG_OF_PERICENTER":270.7292,"MEAN_ANOMALY":89.3542,"EPHEMERIS_TYPE":0,"CLASSIFICATION_TYPE":"U","NORAD_CAT_ID":55393,"ELEMENT_SET_NO":999,"REV_AT_EPOCH":14595,"BSTAR":4.929906e-6,"MEAN_MOTION_DOT":-3.4e-7,"MEAN_MOTION_DDOT":0},{"OBJECT_NAME":"STARLINK-5274","OBJECT_ID":"2023-014E","EPOCH":"2025-09-16T09:46:28.560000","MEAN_MOTION":14.98324031,"ECCENTRICITY":0.00026866,"INCLINATION":69.9994,"RA_OF_ASC_NODE":143.7157,"ARG_OF_PERICENTER":265.1775,"MEAN_ANOMALY":94.9077,"EPHEMERIS_TYPE":0,"CLASSIFICATION_TYPE":"U","NORAD_CAT_ID":55395,"ELEMENT_SET_NO":999,"REV_AT_EPOCH":14595,"BSTAR":8.3882553e-5,"MEAN_MOTION_DOT":9.08e-6,"MEAN_MOTION_DDOT":0},{"OBJECT_NAME":"STARLINK-5283","OBJECT_ID":"2023-014F","EPOCH":"2025-09-16T01:51:47.010816","MEAN_MOTION":14.98335259,"ECCENTRICITY":0.0002884,"INCLINATION":69.9995,"RA_OF_ASC_NODE":144.5822,"ARG_OF_PERICENTER":270.1808,"MEAN_ANOMALY":89.9021,"EPHEMERIS_TYPE":0,"CLASSIFICATION_TYPE":"U","NORAD_CAT_ID":55396,"ELEMENT_SET_NO":999,"REV_AT_EPOCH":14590,"BSTAR":5.73661e-5,"MEAN_MOTION_DOT":5.92e-6,"MEAN_MOTION_DDOT":0},{"OBJECT_NAME":"STARLINK-5224","OBJECT_ID":"2023-014G","EPOCH":"2025-09-16T08:58:04.921248","MEAN_MOTION":14.98330279,"ECCENTRICITY":0.00027549,"INCLINATION":69.9987,"RA_OF_ASC_NODE":124.1244,"ARG_OF_PERICENTER":270.854,"MEAN_ANOMALY":89.2304,"EPHEMERIS_TYPE":0,"CLASSIFICATION_TYPE":"U","NORAD_CAT_ID":55397,"ELEMENT_SET_NO":999,"REV_AT_EPOCH":14643,"BSTAR":4.166298e-6,"MEAN_MOTION_DOT":-4.3e-7,"MEAN_MOTION_DDOT":0},{"OBJECT_NAME":"STARLINK-5275","OBJECT_ID":"2023-014H","EPOCH":"2025-09-16T10:16:30.565056","MEAN_MOTION":14.98330901,"ECCENTRICITY":0.00029243,"INCLINATION":69.9996,"RA_OF_ASC_NODE":143.7981,"ARG_OF_PERICENTER":268.6191,"MEAN_ANOMALY":91.4633,"EPHEMERIS_TYPE":0,"CLASSIFICATION_TYPE":"U","NORAD_CAT_ID":55398,"ELEMENT_SET_NO":999,"REV_AT_EPOCH":14595,"BSTAR":3.7405377e-5,"MEAN_MOTION_DOT":3.53e-6,"MEAN_MOTION_DDOT":0},{"OBJECT_NAME":"STARLINK-5276","OBJECT_ID":"2023-014J","EPOCH":"2025-09-16T00:27:40.328928","MEAN_MOTION":14.98335695,"ECCENTRICITY":0.00030337,"INCLINATION":69.9995,"RA_OF_ASC_NODE":144.7787,"ARG_OF_PERICENTER":269.5445,"MEAN_ANOMALY":90.5367,"EPHEMERIS_TYPE":0,"CLASSIFICATION_TYPE":"U","NORAD_CAT_ID":55399,"ELEMENT_SET_NO":999,"REV_AT_EPOCH":14589,"BSTAR":0.00010008447,"MEAN_MOTION_DOT":1.102e-5,"MEAN_MOTION_DDOT":0},{"OBJECT_NAME":"STARLINK-5632","OBJECT_ID":"2023-014K","EPOCH":"2025-09-16T00:51:42.918624","MEAN_MOTION":14.98335182,"ECCENTRICITY":0.00028728,"INCLINATION":69.9997,"RA_OF_ASC_NODE":144.8326,"ARG_OF_PERICENTER":270.8082,"MEAN_ANOMALY":89.2748,"EPHEMERIS_TYPE":0,"CLASSIFICATION_TYPE":"U","NORAD_CAT_ID":55400,"ELEMENT_SET_NO":999,"REV_AT_EPOCH":14589,"BSTAR":9.1603795e-5,"MEAN_MOTION_DOT":1.0e-5,"MEAN_MOTION_DDOT":0},{"OBJECT_NAME":"STARLINK-5076","OBJECT_ID":"2023-014L","EPOCH":"2025-09-16T10:10:29.720640","MEAN_MOTION":14.98330526,"ECCENTRICITY":0.00029674,"INCLINATION":69.9993,"RA_OF_ASC_NODE":143.7829,"ARG_OF_PERICENTER":269.2351,"MEAN_ANOMALY":90.8468,"EPHEMERIS_TYPE":0,"CLASSIFICATION_TYPE":"U","NORAD_CAT_ID":55401,"ELEMENT_SET_NO":999,"REV_AT_EPOCH":14595,"BSTAR":3.4454098e-5,"MEAN_MOTION_DOT":3.18e-6,"MEAN_MOTION_DDOT":0},{"OBJECT_NAME":"STARLINK-5071","OBJECT_ID":"2023-014M","EPOCH":"2025-09-16T02:39:52.199712","MEAN_MOTION":14.98335641,"ECCENTRICITY":0.00031221,"INCLINATION":69.9999,"RA_OF_ASC_NODE":144.6992,"ARG_OF_PERICENTER":283.6529,"MEAN_ANOMALY":76.4282,"EPHEMERIS_TYPE":0,"CLASSIFICATION_TYPE":"U","NORAD_CAT_ID":55402,"ELEMENT_SET_NO":999,"REV_AT_EPOCH":14590,"BSTAR":8.6116725e-5,"MEAN_MOTION_DOT":9.35e-6,"MEAN_MOTION_DDOT":0},{"OBJECT_NAME":"STARLINK-5597","OBJECT_ID":"2023-014N","EPOCH":"2025-09-16T10:22:30.871200","MEAN_MOTION":14.98331861,"ECCENTRICITY":0.00029723,"INCLINATION":69.9995,"RA_OF_ASC_NODE":143.8135,"ARG_OF_PERICENTER":270.5852,"MEAN_ANOMALY":89.4967,"EPHEMERIS_TYPE":0,"CLASSIFICATION_TYPE":"U","NORAD_CAT_ID":55403,"ELEMENT_SET_NO":999,"REV_AT_EPOCH":14595,"BSTAR":2.6470562e-5,"MEAN_MOTION_DOT":2.23e-6,"MEAN_MOTION_DDOT":0},{"OBJECT_NAME":"STARLINK-5607","OBJECT_ID":"2023-014P","EPOCH":"2025-09-16T09:16:26.029632","MEAN_MOTION":14.98335088,"ECCENTRICITY":0.0003105,"INCLINATION":70.0011,"RA_OF_ASC_NODE":144.0555,"ARG_OF_PERICENTER":267.1386,"MEAN_ANOMALY":92.9418,"EPHEMERIS_TYPE":0,"CLASSIFICATION_TYPE":"U","NORAD_CAT_ID":55404,"ELEMENT_SET_NO":999,"REV_AT_EPOCH":14594,"BSTAR":6.7897031e-5,"MEAN_MOTION_DOT":7.17e-6,"MEAN_MOTION_DDOT":0},{"OBJECT_NAME":"STARLINK-5623","OBJECT_ID":"2023-014Q","EPOCH":"2025-09-16T00:57:43.727616","MEAN_MOTION":14.98335926,"ECCENTRICITY":0.00028503,"INCLINATION":69.9997,"RA_OF_ASC_NODE":144.8531,"ARG_OF_PERICENTER":264.9114,"MEAN_ANOMALY":95.1719,"EPHEMERIS_TYPE":0,"CLASSIFICATION_TYPE":"U","NORAD_CAT_ID":55405,"ELEMENT_SET_NO":999,"REV_AT_EPOCH":14589,"BSTAR":8.9266944e-5,"MEAN_MOTION_DOT":9.72e-6,"MEAN_MOTION_DDOT":0},{"OBJECT_NAME":"STARLINK-5630","OBJECT_ID":"2023-014R","EPOCH":"2025-09-16T09:22:26.827392","MEAN_MOTION":14.98333561,"ECCENTRICITY":0.00027762,"INCLINATION":70.0002,"RA_OF_ASC_NODE":144.0705,"ARG_OF_PERICENTER":271.0119,"MEAN_ANOMALY":89.0722,"EPHEMERIS_TYPE":0,"CLASSIFICATION_TYPE":"U","NORAD_CAT_ID":55406,"ELEMENT_SET_NO":999,"REV_AT_EPOCH":14594,"BSTAR":-9.0030468e-5,"MEAN_MOTION_DOT":-1.167e-5,"MEAN_MOTION_DDOT":0},{"OBJECT_NAME":"STARLINK-5019","OBJECT_ID":"2023-014S","EPOCH":"2025-09-16T09:10:25.548096","MEAN_MOTION":14.98331504,"ECCENTRICITY":0.00027634,"INCLINATION":69.9999,"RA_OF_ASC_NODE":144.0409,"ARG_OF_PERICENTER":271.2174,"MEAN_ANOMALY":88.8669,"EPHEMERIS_TYPE":0,"CLASSIFICATION_TYPE":"U","NORAD_CAT_ID":55407,"ELEMENT_SET_NO":999,"REV_AT_EPOCH":14594,"BSTAR":9.766205e-6,"MEAN_MOTION_DOT":2.4e-7,"MEAN_MOTION_DDOT":0},{"OBJECT_NAME":"STARLINK-5092","OBJECT_ID":"2023-014T","EPOCH":"2025-09-16T09:28:27.460128","MEAN_MOTION":14.98326402,"ECCENTRICITY":0.00030775,"INCLINATION":69.9996,"RA_OF_ASC_NODE":144.0845,"ARG_OF_PERICENTER":271.9695,"MEAN_ANOMALY":88.1112,"EPHEMERIS_TYPE":0,"CLASSIFICATION_TYPE":"U","NORAD_CAT_ID":55408,"ELEMENT_SET_NO":999,"REV_AT_EPOCH":14594,"BSTAR":0.00011118201,"MEAN_MOTION_DOT":1.234e-5,"MEAN_MOTION_DDOT":0},{"OBJECT_NAME":"STARLINK-5633","OBJECT_ID":"2023-014V","EPOCH":"2025-09-16T00:40:00.805440","MEAN_MOTION":14.98338158,"ECCENTRICITY":0.00029749,"INCLINATION":70.0004,"RA_OF_ASC_NODE":164.6774,"ARG_OF_PERICENTER":269.6501,"MEAN_ANOMALY":90.4317,"EPHEMERIS_TYPE":0,"CLASSIFICATION_TYPE":"U","NORAD_CAT_ID":55410,"ELEMENT_SET_NO":999,"REV_AT_EPOCH":14540,"BSTAR":7.6283629e-5,"MEAN_MOTION_DOT":8.18e-6,"MEAN_MOTION_DDOT":0},{"OBJECT_NAME":"STARLINK-5605","OBJECT_ID":"2023-014W","EPOCH":"2025-09-16T09:34:29.569440","MEAN_MOTION":14.98323218,"ECCENTRICITY":0.00029573,"INCLINATION":69.9993,"RA_OF_ASC_NODE":144.0994,"ARG_OF_PERICENTER":272.132,"MEAN_ANOMALY":87.95,"EPHEMERIS_TYPE":0,"CLASSIFICATION_TYPE":"U","NORAD_CAT_ID":55411,"ELEMENT_SET_NO":999,"REV_AT_EPOCH":14594,"BSTAR":8.8212327e-5,"MEAN_MOTION_DOT":9.59e-6,"MEAN_MOTION_DDOT":0}]
